KUIPER-00176            
1 65788U 25217AC  26003.16667823 -.00017608  00000+0 -22848-2 0  9990
2 65788  51.9007 332.8467 0001535  88.0659 204.5409 14.79966679  3338
KUIPER-00101            
1 65947U 25228A   26002.98876633  .00009035  00000+0  12115-2 0  9998
2 65947  51.9000 291.1205 0000372  16.5208 343.5766 14.79969347 13504
KUIPER-00113            
1 65948U 25228B   26003.16667823  .00028478  00000+0  34100-2 0  9999
2 65948  51.8986 285.4840 0004311  94.4196 216.5423 14.83885307  4985
KUIPER-00117            
1 65949U 25228C   26003.16667823  .00021817  00000+0  28195-2 0  9997
2 65949  51.8988 287.8626 0000382  25.6017 184.2334 14.80849247  4160
KUIPER-00121            
1 65950U 25228D   26003.16667823 -.00592453  00000+0 -69414-1 0  9998
2 65950  51.8989 282.8321 0004411 123.1723 241.9479 14.87135837  2928
KUIPER-00122            
1 65951U 25228E   26003.08728294 -.00001300  00000+0 -14134-3 0  9997
2 65951  51.8986 293.1740 0001380  78.3516 281.7602 14.79981881 13481
KUIPER-00123            
1 65952U 25228F   26002.24323156  .00010131  00000+0  13547-2 0  9999
2 65952  51.9006 296.9297 0001246  94.3535 265.7570 14.79972344 13350
KUIPER-00124            
1 65953U 25228G   26003.16667823  .00032098  00000+0  42023-2 0  9991
2 65953  51.8994 285.3364 0000766  14.6570 184.3330 14.80103278  5493
